STARLINK-35690          
1 66383U 25257D   25331.16670139 -.01999978  00000+0 -28781-1 0  9994
2 66383  53.1599 338.3749 0001087  79.8849 305.6379 15.58979263  3997
STARLINK-35662          
1 66384U 25257E   25331.16670139 -.02009395  00000+0 -28929-1 0  9995
2 66384  53.1600 338.3720 0001160  74.0312 313.4069 15.58984724  3995
STARLINK-35659          
1 66385U 25257F   25331.16670139 -.01994080  00000+0 -28686-1 0  9999
2 66385  53.1600 338.3797 0001137  79.8394 303.7669 15.58976620  3991
STARLINK-35651          
1 66386U 25257G   25331.16670139 -.02006144  00000+0 -28878-1 0  9999
2 66386  53.1601 338.3676 0001028  81.0203 308.3355 15.58983614  3996
STARLINK-35661          
1 66387U 25257H   25331.16670139 -.01990029  00000+0 -28622-1 0  9990
2 66387  53.1603 338.3638 0000946  86.9752 304.2991 15.58976142  3997
STARLINK-35647          
1 66388U 25257J   25331.16670139 -.01992991  00000+0 -28668-1 0  9991
2 66388  53.1603 338.3593 0001047  79.9742 313.2143 15.58978176  3990
STARLINK-35694          
1 66389U 25257K   25331.16670139 -.02004885  00000+0 -28858-1 0  9990
2 66389  53.1601 338.3550 0001044  75.3958 319.7095 15.58983166  3990
STARLINK-35665          
1 66390U 25257L   25331.16670139 -.02008220  00000+0 -28909-1 0  9996
2 66390  53.1596 338.2837 0001223  68.5631   1.0448 15.58984775  4095
STARLINK-35656          
1 66391U 25257M   25331.16670139 -.02205202  00000+0 -35127-1 0  9996
2 66391  53.1596 338.0087 0001476  85.1020 116.9031 15.56059148  4097
STARLINK-35671          
1 66392U 25257N   25331.16670139 -.01992552  00000+0 -28662-1 0  9993
2 66392  53.1601 338.3476 0000913  87.6522 311.2884 15.58978226  3992
STARLINK-35652          
1 66393U 25257P   25331.16670139 -.01989998  00000+0 -28621-1 0  9999
2 66393  53.1600 338.3521 0001095  76.2868 320.7367 15.58975100  3991
STARLINK-35672          
1 66394U 25257Q   25331.16670139 -.02010401  00000+0 -28943-1 0  9992
2 66394  53.1602 338.3431 0001093  71.0615 329.7918 15.58987333  3997
