CCSDS_OMM_VERS = 2.0
CREATION_DATE  = 
ORIGINATOR     = 

OBJECT_NAME    = STARLINK-35690
OBJECT_ID      = 2025-257D
CENTER_NAME    = EARTH
REF_FRAME      = TEME
TIME_SYSTEM    = UTC
MEAN_ELEMENT_THEORY = SGP/SGP4

EPOCH          = 2025-11-27T04:00:03.000096
MEAN_MOTION    = 15.58979263
ECCENTRICITY   = .0001087
INCLINATION    = 53.1599
RA_OF_ASC_NODE = 338.3749
ARG_OF_PERICENTER = 79.8849
MEAN_ANOMALY   = 305.6379

EPHEMERIS_TYPE = 0
CLASSIFICATION_TYPE = U
NORAD_CAT_ID   = 66383
ELEMENT_SET_NO = 999
REV_AT_EPOCH   = 399
BSTAR          = -.28781E-1
MEAN_MOTION_DOT = -.1999978E-1
MEAN_MOTION_DDOT = 0

CCSDS_OMM_VERS = 2.0
CREATION_DATE  = 
ORIGINATOR     = 

OBJECT_NAME    = STARLINK-35662
OBJECT_ID      = 2025-257E
CENTER_NAME    = EARTH
REF_FRAME      = TEME
TIME_SYSTEM    = UTC
MEAN_ELEMENT_THEORY = SGP/SGP4

EPOCH          = 2025-11-27T04:00:03.000096
MEAN_MOTION    = 15.58984724
ECCENTRICITY   = .000116
INCLINATION    = 53.1600
RA_OF_ASC_NODE = 338.3720
ARG_OF_PERICENTER = 74.0312
MEAN_ANOMALY   = 313.4069

EPHEMERIS_TYPE = 0
CLASSIFICATION_TYPE = U
NORAD_CAT_ID   = 66384
ELEMENT_SET_NO = 999
REV_AT_EPOCH   = 399
BSTAR          = -.28929E-1
MEAN_MOTION_DOT = -.2009395E-1
MEAN_MOTION_DDOT = 0

CCSDS_OMM_VERS = 2.0
CREATION_DATE  = 
ORIGINATOR     = 

OBJECT_NAME    = STARLINK-35659
OBJECT_ID      = 2025-257F
CENTER_NAME    = EARTH
REF_FRAME      = TEME
TIME_SYSTEM    = UTC
MEAN_ELEMENT_THEORY = SGP/SGP4

EPOCH          = 2025-11-27T04:00:03.000096
MEAN_MOTION    = 15.58976620
ECCENTRICITY   = .0001137
INCLINATION    = 53.1600
RA_OF_ASC_NODE = 338.3797
ARG_OF_PERICENTER = 79.8394
MEAN_ANOMALY   = 303.7669

EPHEMERIS_TYPE = 0
CLASSIFICATION_TYPE = U
NORAD_CAT_ID   = 66385
ELEMENT_SET_NO = 999
REV_AT_EPOCH   = 399
BSTAR          = -.28686E-1
MEAN_MOTION_DOT = -.199408E-1
MEAN_MOTION_DDOT = 0

CCSDS_OMM_VERS = 2.0
CREATION_DATE  = 
ORIGINATOR     = 

OBJECT_NAME    = STARLINK-35651
OBJECT_ID      = 2025-257G
CENTER_NAME    = EARTH
REF_FRAME      = TEME
TIME_SYSTEM    = UTC
MEAN_ELEMENT_THEORY = SGP/SGP4

EPOCH          = 2025-11-27T04:00:03.000096
MEAN_MOTION    = 15.58983614
ECCENTRICITY   = .0001028
INCLINATION    = 53.1601
RA_OF_ASC_NODE = 338.3676
ARG_OF_PERICENTER = 81.0203
MEAN_ANOMALY   = 308.3355

EPHEMERIS_TYPE = 0
CLASSIFICATION_TYPE = U
NORAD_CAT_ID   = 66386
ELEMENT_SET_NO = 999
REV_AT_EPOCH   = 399
BSTAR          = -.28878E-1
MEAN_MOTION_DOT = -.2006144E-1
MEAN_MOTION_DDOT = 0

CCSDS_OMM_VERS = 2.0
CREATION_DATE  = 
ORIGINATOR     = 

OBJECT_NAME    = STARLINK-35661
OBJECT_ID      = 2025-257H
CENTER_NAME    = EARTH
REF_FRAME      = TEME
TIME_SYSTEM    = UTC
MEAN_ELEMENT_THEORY = SGP/SGP4

EPOCH          = 2025-11-27T04:00:03.000096
MEAN_MOTION    = 15.58976142
ECCENTRICITY   = .0000946
INCLINATION    = 53.1603
RA_OF_ASC_NODE = 338.3638
ARG_OF_PERICENTER = 86.9752
MEAN_ANOMALY   = 304.2991

EPHEMERIS_TYPE = 0
CLASSIFICATION_TYPE = U
NORAD_CAT_ID   = 66387
ELEMENT_SET_NO = 999
REV_AT_EPOCH   = 399
BSTAR          = -.28622E-1
MEAN_MOTION_DOT = -.1990029E-1
MEAN_MOTION_DDOT = 0

CCSDS_OMM_VERS = 2.0
CREATION_DATE  = 
ORIGINATOR     = 

OBJECT_NAME    = STARLINK-35647
OBJECT_ID      = 2025-257J
CENTER_NAME    = EARTH
REF_FRAME      = TEME
TIME_SYSTEM    = UTC
MEAN_ELEMENT_THEORY = SGP/SGP4

EPOCH          = 2025-11-27T04:00:03.000096
MEAN_MOTION    = 15.58978176
ECCENTRICITY   = .0001047
INCLINATION    = 53.1603
RA_OF_ASC_NODE = 338.3593
ARG_OF_PERICENTER = 79.9742
MEAN_ANOMALY   = 313.2143

EPHEMERIS_TYPE = 0
CLASSIFICATION_TYPE = U
NORAD_CAT_ID   = 66388
ELEMENT_SET_NO = 999
REV_AT_EPOCH   = 399
BSTAR          = -.28668E-1
MEAN_MOTION_DOT = -.1992991E-1
MEAN_MOTION_DDOT = 0

CCSDS_OMM_VERS = 2.0
CREATION_DATE  = 
ORIGINATOR     = 

OBJECT_NAME    = STARLINK-35694
OBJECT_ID      = 2025-257K
CENTER_NAME    = EARTH
REF_FRAME      = TEME
TIME_SYSTEM    = UTC
MEAN_ELEMENT_THEORY = SGP/SGP4

EPOCH          = 2025-11-27T04:00:03.000096
MEAN_MOTION    = 15.58983166
ECCENTRICITY   = .0001044
INCLINATION    = 53.1601
RA_OF_ASC_NODE = 338.3550
ARG_OF_PERICENTER = 75.3958
MEAN_ANOMALY   = 319.7095

EPHEMERIS_TYPE = 0
CLASSIFICATION_TYPE = U
NORAD_CAT_ID   = 66389
ELEMENT_SET_NO = 999
REV_AT_EPOCH   = 399
BSTAR          = -.28858E-1
MEAN_MOTION_DOT = -.2004885E-1
MEAN_MOTION_DDOT = 0

CCSDS_OMM_VERS = 2.0
CREATION_DATE  = 
ORIGINATOR     = 

OBJECT_NAME    = STARLINK-35665
OBJECT_ID      = 2025-257L
CENTER_NAME    = EARTH
REF_FRAME      = TEME
TIME_SYSTEM    = UTC
MEAN_ELEMENT_THEORY = SGP/SGP4

EPOCH          = 2025-11-27T04:00:03.000096
MEAN_MOTION    = 15.58984775
ECCENTRICITY   = .0001223
INCLINATION    = 53.1596
RA_OF_ASC_NODE = 338.2837
ARG_OF_PERICENTER = 68.5631
MEAN_ANOMALY   = 1.0448

EPHEMERIS_TYPE = 0
CLASSIFICATION_TYPE = U
NORAD_CAT_ID   = 66390
ELEMENT_SET_NO = 999
REV_AT_EPOCH   = 409
BSTAR          = -.28909E-1
MEAN_MOTION_DOT = -.200822E-1
MEAN_MOTION_DDOT = 0

CCSDS_OMM_VERS = 2.0
CREATION_DATE  = 
ORIGINATOR     = 

OBJECT_NAME    = STARLINK-35656
OBJECT_ID      = 2025-257M
CENTER_NAME    = EARTH
REF_FRAME      = TEME
TIME_SYSTEM    = UTC
MEAN_ELEMENT_THEORY = SGP/SGP4

EPOCH          = 2025-11-27T04:00:03.000096
MEAN_MOTION    = 15.56059148
ECCENTRICITY   = .0001476
INCLINATION    = 53.1596
RA_OF_ASC_NODE = 338.0087
ARG_OF_PERICENTER = 85.1020
MEAN_ANOMALY   = 116.9031

EPHEMERIS_TYPE = 0
CLASSIFICATION_TYPE = U
NORAD_CAT_ID   = 66391
ELEMENT_SET_NO = 999
REV_AT_EPOCH   = 409
BSTAR          = -.35127E-1
MEAN_MOTION_DOT = -.2205202E-1
MEAN_MOTION_DDOT = 0

CCSDS_OMM_VERS = 2.0
CREATION_DATE  = 
ORIGINATOR     = 

OBJECT_NAME    = STARLINK-35671
OBJECT_ID      = 2025-257N
CENTER_NAME    = EARTH
REF_FRAME      = TEME
TIME_SYSTEM    = UTC
MEAN_ELEMENT_THEORY = SGP/SGP4

EPOCH          = 2025-11-27T04:00:03.000096
MEAN_MOTION    = 15.58978226
ECCENTRICITY   = .0000913
INCLINATION    = 53.1601
RA_OF_ASC_NODE = 338.3476
ARG_OF_PERICENTER = 87.6522
MEAN_ANOMALY   = 311.2884

EPHEMERIS_TYPE = 0
CLASSIFICATION_TYPE = U
NORAD_CAT_ID   = 66392
ELEMENT_SET_NO = 999
REV_AT_EPOCH   = 399
BSTAR          = -.28662E-1
MEAN_MOTION_DOT = -.1992552E-1
MEAN_MOTION_DDOT = 0

CCSDS_OMM_VERS = 2.0
CREATION_DATE  = 
ORIGINATOR     = 

OBJECT_NAME    = STARLINK-35652
OBJECT_ID      = 2025-257P
CENTER_NAME    = EARTH
REF_FRAME      = TEME
TIME_SYSTEM    = UTC
MEAN_ELEMENT_THEORY = SGP/SGP4

EPOCH          = 2025-11-27T04:00:03.000096
MEAN_MOTION    = 15.58975100
ECCENTRICITY   = .0001095
INCLINATION    = 53.1600
RA_OF_ASC_NODE = 338.3521
ARG_OF_PERICENTER = 76.2868
MEAN_ANOMALY   = 320.7367

EPHEMERIS_TYPE = 0
CLASSIFICATION_TYPE = U
NORAD_CAT_ID   = 66393
ELEMENT_SET_NO = 999
REV_AT_EPOCH   = 399
BSTAR          = -.28621E-1
MEAN_MOTION_DOT = -.1989998E-1
MEAN_MOTION_DDOT = 0

CCSDS_OMM_VERS = 2.0
CREATION_DATE  = 
ORIGINATOR     = 

OBJECT_NAME    = STARLINK-35672
OBJECT_ID      = 2025-257Q
CENTER_NAME    = EARTH
REF_FRAME      = TEME
TIME_SYSTEM    = UTC
MEAN_ELEMENT_THEORY = SGP/SGP4

EPOCH          = 2025-11-27T04:00:03.000096
MEAN_MOTION    = 15.58987333
ECCENTRICITY   = .0001093
INCLINATION    = 53.1602
RA_OF_ASC_NODE = 338.3431
ARG_OF_PERICENTER = 71.0615
MEAN_ANOMALY   = 329.7918

EPHEMERIS_TYPE = 0
CLASSIFICATION_TYPE = U
NORAD_CAT_ID   = 66394
ELEMENT_SET_NO = 999
REV_AT_EPOCH   = 399
BSTAR          = -.28943E-1
MEAN_MOTION_DOT = -.2010401E-1
MEAN_MOTION_DDOT = 0

